[{"OBJECT_ID":"2008-035B","OBJECT_NAME":"BLOCK DM-SL R/B","NORAD_CAT_ID":"33208","OBJECT_TYPE":"ROCKET BODY","PERIOD":"636.514","INCLINATION":"0.2847","APOGEE":"35607.350","PERIGEE":"658.906","ECCENTRICITY":"0.7129058","MEAN_MOTION":"2.26232092","TLE_LINE1":"1 33208U 08035B   16238.37534289  .00000007  00000-0  23751-3 0  9991","TLE_LINE2":"2 33208   0.2847  74.8145 7129058 337.2592 300.9474  2.26232092 67043","LAUNCH_DATE":"2008-07-16","LAUNCH_SITE":"SEA LAUNCH","OWNER":"SEA LAUNCH DEMO","ORBIT_TYPE":"Highly Elliptical Orbit","OPERATIONAL_STATUS":"N/A, derelict rocket body","satInfo":{"lng":-172.10244383317993,"lat":-2.7378984770911554,"elevation":-12.249986104487629,"azimuth":127.1024438331799,"range":38412.16529638614,"height":31202.277242208766,"velocity":2.2248203088501226},"x":-32,"y":243,"dx":-2.203718610732501,"dy":-0.3056954225747762},{"OBJECT_ID":"2008-038A","OBJECT_NAME":"SUPERBIRD 7","NORAD_CAT_ID":"33274","OBJECT_TYPE":"PAYLOAD","PERIOD":"1436.107","INCLINATION":"0.0434","APOGEE":"35789.018","PERIGEE":"35784.599","ECCENTRICITY":"5.24e-05","MEAN_MOTION":"1.0027103","TLE_LINE1":"1 33274U 08038A   16238.92132579 -.00000279 +00000-0 +00000-0 0  9995","TLE_LINE2":"2 33274 000.0434 294.1856 0000524 252.9670 263.0747 01.00271030069805","LAUNCH_DATE":"2008-08-14","LAUNCH_SITE":"FRENCH GUIANA","OWNER":"JAPAN","ORBIT_TYPE":"Geosynchronous","OPERATIONAL_STATUS":"Operational","satInfo":{"lng":-13.569813281633099,"lat":-0.6472067215062371,"elevation":-9.205277328734898,"azimuth":328.5698132816331,"range":42713.26367569225,"height":35787.73276240561,"velocity":3.0746471382671388},"x":-63,"y":-274,"dx":2.9888176011675913,"dy":-0.721404443987637},{"OBJECT_ID":"2008-044A","OBJECT_NAME":"NIMIQ 4","NORAD_CAT_ID":"33373","OBJECT_TYPE":"PAYLOAD","PERIOD":"1436.079","INCLINATION":"0.0146","APOGEE":"35795.427","PERIGEE":"35777.094","ECCENTRICITY":"0.0002174","MEAN_MOTION":"1.00272985","TLE_LINE1":"1 33373U 08044A   16238.37427516 -.00000247  00000-0  00000+0 0  9993","TLE_LINE2":"2 33373   0.0146 108.4858 0002174  36.4072 241.8962  1.00272985 28918","LAUNCH_DATE":"2008-09-19","LAUNCH_SITE":"TYURATAM MISSILE AND SPACE COMPLEX","OWNER":"CANADA","ORBIT_TYPE":"Geosynchronous","OPERATIONAL_STATUS":"Operational","satInfo":{"lng":-98.36473624421141,"lat":-1.9878149068959066,"elevation":-10.507298332148617,"azimuth":53.3647362442114,"range":42875.46554416025,"height":35803.737557089,"velocity":3.073836372030348},"x":-265,"y":41,"dx":-0.44716368683063135,"dy":-3.0411370701099165},{"OBJECT_ID":"2008-045B","OBJECT_NAME":"BLOCK DM-SL R/B","NORAD_CAT_ID":"33377","OBJECT_TYPE":"ROCKET BODY","PERIOD":"676.519","INCLINATION":"0.6647","APOGEE":"35528.020","PERIGEE":"2771.337","ECCENTRICITY":"0.6415881","MEAN_MOTION":"2.12854249","TLE_LINE1":"1 33377U 08045B   16239.33777869 -.00000103  00000-0  00000+0 0  9995","TLE_LINE2":"2 33377   0.6647 259.3018 6415881 128.6802 357.3170  2.12854249 61602","LAUNCH_DATE":"2008-09-24","LAUNCH_SITE":"SEA LAUNCH","OWNER":"SEA LAUNCH DEMO","ORBIT_TYPE":"Highly Elliptical Orbit","OPERATIONAL_STATUS":"N/A, derelict rocket body","satInfo":{"lng":-2.626632897639403,"lat":0.7092570850097342,"elevation":-8.747984349161731,"azimuth":317.6266328976394,"range":38689.70271696887,"height":31864.409815191735,"velocity":2.2873293301242072},"x":-11,"y":-251,"dx":2.2849262063732882,"dy":-0.10482221079059874},{"OBJECT_ID":"2009-008A","OBJECT_NAME":"NSS 9","NORAD_CAT_ID":"33749","OBJECT_TYPE":"PAYLOAD","PERIOD":"1436.088","INCLINATION":"0.0513","APOGEE":"35795.516","PERIGEE":"35777.343","ECCENTRICITY":"0.0002155","MEAN_MOTION":"1.00272381","TLE_LINE1":"1 33749U 09008A   16238.71656884  .00000045  00000-0  00000+0 0  9996","TLE_LINE2":"2 33749   0.0513 299.2505 0002155 220.6118 255.5548  1.00272381 27649","LAUNCH_DATE":"2009-02-12","LAUNCH_SITE":"FRENCH GUIANA","OWNER":"SOCIÉTÉ EUROPÉENNE DES SATELLITES","ORBIT_TYPE":"Geosynchronous","OPERATIONAL_STATUS":"Operational","satInfo":{"lng":-65.7820785542667,"lat":1.3058570226413193,"elevation":-7.2904104075337,"azimuth":20.782078554266693,"range":42526.28978708452,"height":35815.3044998834,"velocity":3.0735048010325237},"x":-244,"y":-116,"dx":1.260777223194725,"dy":-2.8030113370165615},{"OBJECT_ID":"2009-008D","OBJECT_NAME":"SPIRALE B","NORAD_CAT_ID":"33752","OBJECT_TYPE":"PAYLOAD","PERIOD":"540.105","INCLINATION":"1.6849","APOGEE":"30922.141","PERIGEE":"259.825","ECCENTRICITY":"0.6978504","MEAN_MOTION":"2.6661453","TLE_LINE1":"1 33752U 09008D   16237.79622155  .00003248  00000-0  87853-3 0  9994","TLE_LINE2":"2 33752   1.6849 143.6620 6978504 101.6200 337.6349  2.66614530 66898","LAUNCH_DATE":"2009-02-12","LAUNCH_SITE":"FRENCH GUIANA","OWNER":"FRANCE","ORBIT_TYPE":"Highly Elliptical Orbit","OPERATIONAL_STATUS":"Operational","satInfo":{"lng":156.87041087530702,"lat":0.3857536060155437,"elevation":-10.32576923998602,"azimuth":158.12958912469296,"range":34203.81541897349,"height":27272.492935462196,"velocity":2.279798299137716},"x":80,"y":197,"dx":-2.09654528704404,"dy":0.89553232444432},{"OBJECT_ID":"2009-008E","OBJECT_NAME":"ARIANE 5 DEB (SYLDA)","NORAD_CAT_ID":"33753","OBJECT_TYPE":"DEBRIS","PERIOD":"384.943","INCLINATION":"1.8025","APOGEE":"22032.216","PERIGEE":"269.622","ECCENTRICITY":"0.6207578","MEAN_MOTION":"3.74080462","TLE_LINE1":"1 33753U 09008E   16238.11755375  .00018233  00000-0  33320-2 0  9992","TLE_LINE2":"2 33753   1.8025 170.5251 6207578  45.5599 350.8183  3.74080462 79796","LAUNCH_DATE":"2009-02-12","LAUNCH_SITE":"FRENCH GUIANA","OWNER":"FRANCE","ORBIT_TYPE":"Highly Elliptical Orbit","OPERATIONAL_STATUS":"N/A, space debris","satInfo":{"lng":-53.194929584150735,"lat":0.8183612548000634,"elevation":-20.247538053928995,"azimuth":8.19492958415072,"range":17686.004592742633,"height":10216.670636980922,"velocity":4.847889888664622},"x":-61,"y":-48,"dx":2.904343961675218,"dy":-3.88160051072974},{"OBJECT_ID":"2009-020B","OBJECT_NAME":"BLOCK DM-SL R/B","NORAD_CAT_ID":"34811","OBJECT_TYPE":"ROCKET BODY","PERIOD":"793.443","INCLINATION":"1.7499","APOGEE":"35473.278","PERIGEE":"8551.152","ECCENTRICITY":"0.4741422","MEAN_MOTION":"1.81487462","TLE_LINE1":"1 34811U 09020B   16239.50600978 -.00000141  00000-0  00000+0 0  9990","TLE_LINE2":"2 34811   1.7499 306.7989 4741422 252.9097  51.8898  1.81487462 48731","LAUNCH_DATE":"2009-04-20","LAUNCH_SITE":"SEA LAUNCH","OWNER":"SEA LAUNCH DEMO","ORBIT_TYPE":"Highly Elliptical Orbit","OPERATIONAL_STATUS":"N/A, derelict rocket body","satInfo":{"lng":54.500590822984975,"lat":-0.2737356731931018,"elevation":-12.626211199205079,"azimuth":260.499409177015,"range":29715.28100083814,"height":22618.865807923525,"velocity":3.667818563440888},"x":137,"y":-104,"dx":2.1298822893456295,"dy":2.9860499741051556},{"OBJECT_ID":"2009-034A","OBJECT_NAME":"SIRIUS FM-5","NORAD_CAT_ID":"35493","OBJECT_TYPE":"PAYLOAD","PERIOD":"1436.109","INCLINATION":"0.0157","APOGEE":"35788.217","PERIGEE":"35785.484","ECCENTRICITY":"3.24e-05","MEAN_MOTION":"1.00270879","TLE_LINE1":"1 35493U 09034A   16239.28970964 -.00000229  00000-0  00000+0 0  9999","TLE_LINE2":"2 35493   0.0157 101.3910 0000324 295.7342 315.9766  1.00270879 26059","LAUNCH_DATE":"2009-06-30","LAUNCH_SITE":"TYURATAM MISSILE AND SPACE COMPLEX","OWNER":"UNITED STATES OF AMERICA","ORBIT_TYPE":"Geosynchronous","OPERATIONAL_STATUS":"Operational","satInfo":{"lng":-101.88225458423946,"lat":-1.963987574233157,"elevation":-10.485942283587075,"azimuth":56.882254584239455,"range":42863.85851189421,"height":35794.62619348492,"velocity":3.0744401367326004},"x":-262,"y":58,"dx":-0.6330306542724978,"dy":-3.0085635019230863},{"OBJECT_ID":"2009-042A","OBJECT_NAME":"ASIASAT 5","NORAD_CAT_ID":"35696","OBJECT_TYPE":"PAYLOAD","PERIOD":"1436.125","INCLINATION":"0.0076","APOGEE":"35794.457","PERIGEE":"35779.859","ECCENTRICITY":"0.0001731","MEAN_MOTION":"1.00269783","TLE_LINE1":"1 35696U 09042A   16238.97690623 -.00000335 +00000-0 +00000-0 0  9998","TLE_LINE2":"2 35696 000.0076 184.0672 0001731 293.6575 309.1007 01.00269783025756","LAUNCH_DATE":"2009-08-11","LAUNCH_SITE":"TYURATAM MISSILE AND SPACE COMPLEX","OWNER":"ASIASAT CORP","ORBIT_TYPE":"Geosynchronous","OPERATIONAL_STATUS":"Operational","satInfo":{"lng":50.480063836078855,"lat":0.017244471621705868,"elevation":-8.557298991624673,"azimuth":264.5199361639211,"range":42637.85654711016,"height":35785.05769672063,"velocity":3.074940580941499},"x":206,"y":-179,"dx":1.9567281986788185,"dy":2.372019041410922},{"OBJECT_ID":"2009-044A","OBJECT_NAME":"JCSAT 12","NORAD_CAT_ID":"35755","OBJECT_TYPE":"PAYLOAD","PERIOD":"1436.031","INCLINATION":"0.0245","APOGEE":"35810.029","PERIGEE":"35760.605","ECCENTRICITY":"0.0005861","MEAN_MOTION":"1.00276349","TLE_LINE1":"1 35755U 09044A   16238.90252565  .00000000  00000-0  10000-3 0  9990","TLE_LINE2":"2 35755   0.0245  28.0313 0005861 291.9314 107.4948  1.00276349 25747","LAUNCH_DATE":"2009-08-21","LAUNCH_SITE":"FRENCH GUIANA","OWNER":"JAPAN","ORBIT_TYPE":"Geosynchronous","OPERATIONAL_STATUS":"Backup/Standby","satInfo":{"lng":112.79870205150958,"lat":-0.7719555234397408,"elevation":-9.32279099705945,"azimuth":202.2012979484904,"range":42747.35777728974,"height":35808.41119116721,"velocity":3.0737716528259282},"x":246,"y":109,"dx":-1.191070233545178,"dy":2.8336238057439584}]